GOES-16
1 41866U 16071A   25183.68859532 -.00000082  00000-0  00000-0 0  9996
2 41866   0.0507 235.4763 0000910 268.0397 280.6114  1.00272194 31590
FENGYUN-4A
1 41882U 16077A   25183.98705455 -.00000349  00000-0  00000+0 0  9992
2 41882   1.4320  84.1313 0006829 165.9847 150.1740  1.00268015 31476
FOX-1B (AO-91)
1 43017U 17073E   25184.19820928  .00007763  00000-0  39344-3 0  9991
2 43017  97.5214  54.3716 0173062  86.2277 275.8719 15.05044600412766
CANX-2
1 32790U 08021H   25183.88929429  .00002293  00000-0  18018-3 0  9999
2 32790  97.8185 153.8250 0013043 128.6708 231.5685 15.01843200932310
AIST-2 (RS-43)
1 39133U 13015D   25184.14654056  .00004049  00000-0  18849-3 0  9990
2 39133  64.8716 314.0985 0031654 276.4919  83.2605 15.21003666671165
NANOSATC-BR1
1 40024U 14033Q   25183.93106874  .00010104  00000-0  48888-3 0  9993
2 40024  98.0907 183.4849 0003368 334.7696  25.3372 15.18805703601276
QB50P1
1 40025U 14033R   25184.18932905  .00005629  00000-0  34303-3 0  9997
2 40025  98.0833 168.0997 0009626 344.9798  15.1142 15.10781115600719
QB50P2
1 40032U 14033Y   25184.19143028  .00005049  00000-0  32720-3 0  9993
2 40032  98.0445 156.7792 0006766 283.9167  76.1308 15.08595327600454
PERSEUS-M2
1 40037U 14033AD  25184.14923165  .00000980  00000-0  97921-4 0  9995
2 40037  97.9558 123.9975 0012855  22.8946 337.2844 14.93801506599143
PERSEUS-M1
1 40039U 14033AF  25184.06866940  .00001123  00000-0  11141-3 0  9994
2 40039  97.9295 118.7920 0012611  22.1006 338.0755 14.93791386598991
POLYITAN-1
1 40042U 14033AJ  25183.95261009  .00010264  00000-0  49195-3 0  9996
2 40042  98.1032 175.9400 0007713 280.5996  79.4368 15.19110425600336
TIGRISAT
1 40043U 14033AK  25183.94727633  .00001933  00000-0  23838-3 0  9995
2 40043  97.7380 338.4796 0052350 138.4276 222.0937 14.83044889593824
UKUBE-1
1 40074U 14037F   25183.89340993  .00006417  00000-0  44808-3 0  9999
2 40074  98.3948 148.2426 0000459 128.4559 231.6707 15.05748940595858
DEORBITSAIL
1 40719U 15032E   25183.85892419  .00004900  00000-0  42947-3 0  9999
2 40719  97.6405  42.9193 0010301 316.0224  44.0177 14.97077819538861
HORYU-IV
1 41340U 16012D   25183.46116655  .00015913  00000-0  41276-3 0  9997
2 41340  30.9979 337.9648 0006342 304.7254  55.2794 15.37700272516313
D-SAT
1 42794U 17036AF  25183.89274406  .00005479  00000-0  30541-3 0  9993
2 42794  97.5154 161.3644 0091203 288.0475  71.0833 15.10474318438015
CORVUS-BC2
1 42846U 17042X   25184.01116359  .00002807  00000-0  21218-3 0  9998
2 42846  97.3769 355.4738 0013184 218.2427 141.7865 15.03068112434555
CORVUS-BC1
1 42847U 17042Y   25183.92516195  .00002223  00000-0  16790-3 0  9991
2 42847  97.3791 355.9472 0012091 191.8140 168.2804 15.03310740434560
APRIZESAT-5 
1 37792U 11044E   25184.21357115  .00000876  00000-0  12052-3 0  9997
2 37792  98.2306 103.0841 0054351  46.9508 313.6236 14.80002139747296
APRIZESAT-6
1 37793U 11044F   25183.60623655  .00000554  00000-0  86942-4 0  9998
2 37793  98.2584  81.7974 0044857 122.7199 303.4978 14.76108192745562
APRIZESAT-7
1 39416U 13066A   25184.15854345  .00001112  00000-0  11934-3 0  9990
2 39416  97.7217 138.8157 0035359 288.9626  70.7761 14.90185274629250
APRIZESAT-8
1 39425U 13066K   25183.86081297  .00001003  00000-0  11739-3 0  9997
2 39425  97.7769 132.4865 0046927 357.0644   3.0290 14.86512431627752
BUGSAT-1 (TITA)
1 40014U 14033E   25184.18575775  .00003287  00000-0  19908-3 0  9995
2 40014  98.0732 252.0677 0029460 289.5336  70.2712 15.11036121603061
SAUDISAT-4
1 40016U 14033G   25183.92763194  .00000653  00000-0  94134-4 0  9991
2 40016  97.7100 338.3789 0046627 129.0385 231.4991 14.78771563594445
TABLETSAT-AURORA
1 40017U 14033H   25184.15312508  .00005256  00000-0  31249-3 0  9998
2 40017  98.0714 233.2112 0012066 330.9942  29.0614 15.11693919602388
APRIZESAT-9
1 40018U 14033J   25184.12106544  .00000531  00000-0  86869-4 0  9997
2 40018  97.8573 322.0822 0065756 242.0832 117.3708 14.73498338592275
APRIZESAT-10
1 40019U 14033K   25183.94039608  .00000348  00000-0  63401-4 0  9996
2 40019  97.9201 314.8229 0078552 309.7836  49.6471 14.70252591591109
AISAT
1 40054U 14034B   25183.64746276  .00005105  00000-0  41299-3 0  9995
2 40054  98.2877  67.5208 0010077 297.9254  62.0947 15.00226042594656
COSMOS-2407 [+]
1 28380U 04028A   25184.20682755  .00000059  00000-0  44101-4 0  9998
2 28380  82.9617 333.2639 0040025 146.8584  26.6169 13.76293120 52069
COSMOS-2414 [+]
1 28521U 05002A   25184.10544051  .00000079  00000-0  53279-4 0  9991
2 28521  82.9509 307.6603 0038875 243.8753 115.8409 13.87878567 35726
COSMOS-2463 [+]
1 36519U 10017A   25183.85274104  .00000070  00000-0  60942-4 0  9995
2 36519  82.9609 146.3962 0036771  21.6549  42.6573 13.71632488760049
NOAA-15
1 25338U 98030A   25184.16066232  .00000177  00000-0  90365-4 0  9999
2 25338  98.5339 208.7232 0009059 292.9298  67.0926 14.26991166411762
NOAA-18
1 28654U 05018A   25184.19189789  .00000051  00000-0  50280-4 0  9996
2 28654  98.8422 263.4028 0015179  65.0126 295.2621 14.13616253 37085
NOAA-19
1 33591U 09005A   25184.20216820  .00000139  00000-0  98362-4 0  9991
2 33591  98.9963 249.0383 0012739 299.0176  60.9719 14.13384484845449
SARAL
1 39086U 13009A   25184.21590015  .00000061  00000-0  38413-4 0  9992
2 39086  98.5537  10.2471 0001057 203.2647 156.8490 14.32688311645631
LAPAN-A3
1 41603U 16040E   25184.24256217  .00002462  00000-0  87163-4 0  9997
2 41603  97.1370 187.9232 0011047 175.1564 184.9786 15.29991872501403
BIROS
1 41604U 16040F   25183.65375538  .00024599  00000-0  26812-3 0  9998
2 41604  97.0856 212.6062 0007097  93.8476 266.3595 15.63359521503106
METOP-A
1 29499U 06044A   25183.92136586  .00002155  00000-0  25925-3 0  9995
2 29499  98.3311 275.3355 0180264 101.6246 350.0478 14.74118745973964
METEOR M1
1 35865U 09049A   25184.13168311  .00000064  00000-0  47801-4 0  9997
2 35865  98.6864 145.1680 0001326 216.7669 143.3418 14.23028420819743
METOP-B
1 38771U 12049A   25184.18887396  .00000074  00000-0  53320-4 0  9990
2 38771  98.5756 237.7401 0000403  88.5783 271.5441 14.21469139663670
METEOR M2
1 40069U 14037A   25184.20372647  .00000089  00000-0  59955-4 0  9999
2 40069  98.4686 168.1912 0005317 343.1755  16.9245 14.21305407569749
CSSWE
1 38761U 12048D   25184.17547764  .00011689  00000-0  39316-3 0  9991
2 38761  64.6626 177.7179 0112994 268.8048  90.0133 15.25187345 62834
MCUBED-2
1 39469U 13072H   25183.58485636  .00011176  00000-0  54527-3 0  9990
2 39469 120.4927  93.3908 0174136   1.0458 359.0950 15.06658269 64931
IPEX
1 39471U 13072K   25184.11854876  .00006859  00000-0  39938-3 0  9990
2 39471 120.4707  59.9686 0187303 352.0108   7.7995 14.99876056 62719
FOX-1A (AO-85)
1 40967U 15058D   25183.71758624  .00003503  00000-0  31588-3 0  9993
2 40967  64.7763 282.8236 0157772 187.9657 171.8948 14.88193368 61516
OOREOS
1 37224U 10062C   25183.63698019  .00001876  00000-0  19291-3 0  9995
2 37224  71.9694 150.8243 0014454   4.3801 355.7492 14.91549901 64483
STARS (KUKAI)
1 33498U 09002G   25184.19502939  .00002458  00000-0  24850-3 0  9997
2 33498  98.1235 114.0759 0007681 236.3077 123.7409 14.91982570886794
YUBELEINY-2 (RS-40)
1 38735U 12041C   25184.25144429  .00000020  00000-0  75807-4 0  9998
2 38735  82.4769 292.2590 0018572 109.0023 251.3071 12.42632989586601
AIST-1
1 39492U 13078C   25184.19551156  .00001042  00000-0  93806-4 0  9996
2 39492  82.4155 248.5600 0017393  11.8661 348.2965 14.94568288625426
VELOX-1
1 40057U 14034E   25184.16523055  .00003281  00000-0  31906-3 0  9991
2 40057  98.2910  64.9619 0007880 352.1423   7.9670 14.93312112594436
DX1
1 40071U 14037C   25184.15902618  .00001265  00000-0  14371-3 0  9992
2 40071  98.3445 121.1900 0006871 338.2431  21.8492 14.88229682594247
COSMOS-2491 (RS-46) [i]
1 39497U 13076E   25184.23259214  .00000004  00000-0 -40239-4 0  9994
2 39497  82.4856  25.8932 0013635 129.4774 230.7514 12.43489600522646
COSMOS-2499 (RS-47) [i]
1 39765U 14028E   25184.20454432  .00000048  00000-0  12899-3 0  9993
2 39765  82.4499 127.9351 0232727 100.8365 261.9022 12.82892959520499
TRANSIT 5B-5
1 00965U 64083D   25183.82630058  .00000040  00000-0  43567-4 0  9995
2 00965  90.0579 200.4714 0040122 217.3245 316.0839 13.56969245996221
EUTELSAT 1-F4 (ECS 4)
1 18351U 87078B   25183.80903389 -.00000261  00000-0  00000-0 0  9997
2 18351  14.0774 344.5723 0009175  47.0439 323.8669  0.98690988123314
BISONSAT
1 40968U 15058E   25183.53941812  .00004498  00000-0  37227-3 0  9997
2 40968  64.7760 270.7613 0147367 187.0370 172.8678 14.92060876 64427
DTUSAT-2
1 40030U 14033W   25184.17244738  .00005166  00000-0  33531-3 0  9990
2 40030  98.0559 157.1372 0008600 352.7293   7.3808 15.08513970600467
ELEKTRO-L2
1 41105U 15074A   25183.83473590 -.00000111  00000-0  00000+0 0  9999
2 41105   5.8117  74.8471 0000910 196.5348 295.7657  1.00272296 35011
DOVE-3
1 39429U 13066P   25183.91758750  .00002906  00000-0  40482-3 0  9992
2 39429  97.7091  56.3187 0120823  75.6629 285.7958 14.73529854619528
FORTE
1 24920U 97047A   25183.94336562  .00000151  00000-0  84571-4 0  9997
2 24920  69.9539  82.7278 0020756  28.2729 331.9515 14.27723036448833
DMSP 5D-2 F15/USA-147
1 25991U 99067A   25183.95888365  .00000104  00000-0  74001-4 0  9999
2 25991  99.0373 212.3557 0008767 276.6786 146.6897 14.17387645321175
CASSIOPE-1
1 39265U 13055A   25183.86231579  .00022511 -77695-6  34641-3 0  9992
2 39265  80.9412 122.1282 0389093 137.4699 225.7373 14.98693516614888
D-STAR ONE PHOENIX
1 43188U 18014J   25184.19261021  .00003485  00000-0  20647-3 0  9992
2 43188  97.5618  86.9847 0010903 132.7674 227.4476 15.12009020405941
S-NET D
1 43186U 18014G   25183.72904606  .00003781  00000-0  22377-3 0  9992
2 43186  97.5605  86.3998 0010200 137.4135 222.7888 15.12001213405873
TEN-KOH
1 43677U 18084G   25183.93393526  .00001670  00000-0  13709-3 0  9994
2 43677  98.0852 357.1140 0007531 172.7277 187.4056 15.00658879363744
